{
  "type": "FeatureCollection",
  "features": [
    {
      "type": "Feature",
      "properties": {
        "norad_id": 37836,
        "name": "EUTELSAT 16A",
        "group": "eutelsat",
        "lat": 0.08816326659325131,
        "lon": 66.77370992005359,
        "alt_km": 35809.081520080246,
        "timestamp": "2025-12-18T21:31:50.653998+00:00",
        "meta_object_name": "EUTELSAT 16A",
        "meta_object_id": "2011-057A",
        "meta_epoch": "2025-12-18T04:41:38.747040",
        "meta_mean_motion": 1.00274763,
        "meta_eccentricity": 0.00061715,
        "meta_inclination": 0.0625,
        "meta_ra_of_asc_node": 332.6028,
        "meta_arg_of_pericenter": 298.0755,
        "meta_mean_anomaly": 262.8292,
        "meta_ephemeris_type": 0,
        "meta_classification_type": "U",
        "meta_norad_cat_id": 37836,
        "meta_element_set_no": 999,
        "meta_rev_at_epoch": 551,
        "meta_bstar": 0,
        "meta_mean_motion_dot": 1.3e-06,
        "meta_mean_motion_ddot": 0,
        "tle_line1": "1 37836U 11057A   25352.19558735  .00000130  00000+0  00000+0 0  9993",
        "tle_line2": "2 37836   0.0625 332.6028 0006171 298.0755 262.8292  1.00274763  5519"
      },
      "geometry": {
        "type": "Point",
        "coordinates": [
          66.77370992005359,
          0.08816326659325131
        ]
      }
    },
    {
      "type": "Feature",
      "properties": {
        "norad_id": 38992,
        "name": "EUTELSAT 21B",
        "group": "eutelsat",
        "lat": 0.09717952227408966,
        "lon": 72.35968836298088,
        "alt_km": 35798.692964217196,
        "timestamp": "2025-12-18T21:31:50.654025+00:00",
        "meta_object_name": "EUTELSAT 21B",
        "meta_object_id": "2012-062B",
        "meta_epoch": "2025-12-18T04:41:38.747040",
        "meta_mean_motion": 1.00274761,
        "meta_eccentricity": 0.00034964,
        "meta_inclination": 0.0714,
        "meta_ra_of_asc_node": 335.321,
        "meta_arg_of_pericenter": 301.0486,
        "meta_mean_anomaly": 262.7363,
        "meta_ephemeris_type": 0,
        "meta_classification_type": "U",
        "meta_norad_cat_id": 38992,
        "meta_element_set_no": 999,
        "meta_rev_at_epoch": 4801,
        "meta_bstar": 0,
        "meta_mean_motion_dot": 1.56e-06,
        "meta_mean_motion_ddot": 0,
        "tle_line1": "1 38992U 12062B   25352.19558735  .00000156  00000+0  00000+0 0  9992",
        "tle_line2": "2 38992   0.0714 335.3210 0003496 301.0486 262.7363  1.00274761 48016"
      },
      "geometry": {
        "type": "Point",
        "coordinates": [
          72.35968836298088,
          0.09717952227408966
        ]
      }
    },
    {
      "type": "Feature",
      "properties": {
        "norad_id": 39020,
        "name": "EUTELSAT 70B",
        "group": "eutelsat",
        "lat": 0.07202211837733223,
        "lon": 121.15837340572811,
        "alt_km": 35798.06945413558,
        "timestamp": "2025-12-18T21:31:50.654041+00:00",
        "meta_object_name": "EUTELSAT 70B",
        "meta_object_id": "2012-069A",
        "meta_epoch": "2025-12-18T01:38:47.260320",
        "meta_mean_motion": 1.00271233,
        "meta_eccentricity": 0.0004307,
        "meta_inclination": 0.0609,
        "meta_ra_of_asc_node": 358.7558,
        "meta_arg_of_pericenter": 252.8096,
        "meta_mean_anomaly": 290.5628,
        "meta_ephemeris_type": 0,
        "meta_classification_type": "U",
        "meta_norad_cat_id": 39020,
        "meta_element_set_no": 999,
        "meta_rev_at_epoch": 4769,
        "meta_bstar": 0,
        "meta_mean_motion_dot": -1.8e-07,
        "meta_mean_motion_ddot": 0,
        "tle_line1": "1 39020U 12069A   25352.06860255 -.00000018  00000+0  00000+0 0  9999",
        "tle_line2": "2 39020   0.0609 358.7558 0004307 252.8096 290.5628  1.00271233 47695"
      },
      "geometry": {
        "type": "Point",
        "coordinates": [
          121.15837340572811,
          0.07202211837733223
        ]
      }
    },
    {
      "type": "Feature",
      "properties": {
        "norad_id": 39122,
        "name": "EUTELSAT 117 WEST A",
        "group": "eutelsat",
        "lat": -0.043719025280181525,
        "lon": -66.07877279833674,
        "alt_km": 35775.09187101855,
        "timestamp": "2025-12-18T21:31:50.654054+00:00",
        "meta_object_name": "EUTELSAT 117 WEST A",
        "meta_object_id": "2013-012A",
        "meta_epoch": "2025-12-18T06:32:55.676832",
        "meta_mean_motion": 1.00272874,
        "meta_eccentricity": 0.00027185,
        "meta_inclination": 0.0277,
        "meta_ra_of_asc_node": 45.3807,
        "meta_arg_of_pericenter": 226.4287,
        "meta_mean_anomaly": 156.7643,
        "meta_ephemeris_type": 0,
        "meta_classification_type": "U",
        "meta_norad_cat_id": 39122,
        "meta_element_set_no": 999,
        "meta_rev_at_epoch": 4661,
        "meta_bstar": 0,
        "meta_mean_motion_dot": 1.2e-07,
        "meta_mean_motion_ddot": 0,
        "tle_line1": "1 39122U 13012A   25352.27286663  .00000012  00000+0  00000+0 0  9992",
        "tle_line2": "2 39122   0.0277  45.3807 0002718 226.4287 156.7643  1.00272874 46611"
      },
      "geometry": {
        "type": "Point",
        "coordinates": [
          -66.07877279833674,
          -0.043719025280181525
        ]
      }
    },
    {
      "type": "Feature",
      "properties": {
        "norad_id": 39163,
        "name": "EUTELSAT 7B",
        "group": "eutelsat",
        "lat": 0.08368905789124341,
        "lon": 57.75544405625177,
        "alt_km": 35788.61787331247,
        "timestamp": "2025-12-18T21:31:50.654068+00:00",
        "meta_object_name": "EUTELSAT 7B",
        "meta_object_id": "2013-022A",
        "meta_epoch": "2025-12-18T04:46:38.871264",
        "meta_mean_motion": 1.00270241,
        "meta_eccentricity": 0.00042712,
        "meta_inclination": 0.0654,
        "meta_ra_of_asc_node": 354.4778,
        "meta_arg_of_pericenter": 326.5912,
        "meta_mean_anomaly": 204.666,
        "meta_ephemeris_type": 0,
        "meta_classification_type": "U",
        "meta_norad_cat_id": 39163,
        "meta_element_set_no": 999,
        "meta_rev_at_epoch": 4613,
        "meta_bstar": 0,
        "meta_mean_motion_dot": 7.3e-07,
        "meta_mean_motion_ddot": 0,
        "tle_line1": "1 39163U 13022A   25352.19906101  .00000073  00000+0  00000+0 0  9992",
        "tle_line2": "2 39163   0.0654 354.4778 0004271 326.5912 204.6660  1.00270241 46134"
      },
      "geometry": {
        "type": "Point",
        "coordinates": [
          57.75544405625177,
          0.08368905789124341
        ]
      }
    },
    {
      "type": "Feature",
      "properties": {
        "norad_id": 39612,
        "name": "EXPRESS-AT1",
        "group": "eutelsat",
        "lat": 0.01552325386085937,
        "lon": 106.69741538800102,
        "alt_km": 35783.98175334991,
        "timestamp": "2025-12-18T21:31:50.654081+00:00",
        "meta_object_name": "EXPRESS-AT1",
        "meta_object_id": "2014-010A",
        "meta_epoch": "2025-12-18T01:34:40.154592",
        "meta_mean_motion": 1.00270908,
        "meta_eccentricity": 5.765e-05,
        "meta_inclination": 0.0136,
        "meta_ra_of_asc_node": 293.7377,
        "meta_arg_of_pericenter": 194.1591,
        "meta_mean_anomaly": 38.7032,
        "meta_ephemeris_type": 0,
        "meta_classification_type": "U",
        "meta_norad_cat_id": 39612,
        "meta_element_set_no": 999,
        "meta_rev_at_epoch": 4300,
        "meta_bstar": 0,
        "meta_mean_motion_dot": 1.04e-06,
        "meta_mean_motion_ddot": 0,
        "tle_line1": "1 39612U 14010A   25352.06574253  .00000104  00000+0  00000+0 0  9999",
        "tle_line2": "2 39612   0.0136 293.7377 0000576 194.1591  38.7032  1.00270908 43006"
      },
      "geometry": {
        "type": "Point",
        "coordinates": [
          106.69741538800102,
          0.01552325386085937
        ]
      }
    },
    {
      "type": "Feature",
      "properties": {
        "norad_id": 39613,
        "name": "EXPRESS-AT2",
        "group": "eutelsat",
        "lat": -0.022247636910453384,
        "lon": -169.45216618522545,
        "alt_km": 35786.48667150044,
        "timestamp": "2025-12-18T21:31:50.654094+00:00",
        "meta_object_name": "EXPRESS-AT2",
        "meta_object_id": "2014-010B",
        "meta_epoch": "2025-12-18T08:16:56.366112",
        "meta_mean_motion": 1.0027213,
        "meta_eccentricity": 0.00010075,
        "meta_inclination": 0.014,
        "meta_ra_of_asc_node": 294.2623,
        "meta_arg_of_pericenter": 352.3688,
        "meta_mean_anomaly": 64.6688,
        "meta_ephemeris_type": 0,
        "meta_classification_type": "U",
        "meta_norad_cat_id": 39613,
        "meta_element_set_no": 999,
        "meta_rev_at_epoch": 4268,
        "meta_bstar": 0,
        "meta_mean_motion_dot": -2.56e-06,
        "meta_mean_motion_ddot": 0,
        "tle_line1": "1 39613U 14010B   25352.34509683 -.00000256  00000+0  00000+0 0  9995",
        "tle_line2": "2 39613   0.0140 294.2623 0001007 352.3688  64.6688  1.00272130 42684"
      },
      "geometry": {
        "type": "Point",
        "coordinates": [
          -169.45216618522545,
          -0.022247636910453384
        ]
      }
    }
  ]
}